#dP2024  6  6 18  0  0.00000000      96 __u+U IGS20 EXT  IAC
## 2317 410400.00000000   900.00000000 60467 0.7500000000000
+   54   G02G03G04G05G06G07G08G09G10G11G12G13G14G15G16G17G18
+        G19G20G21G22G23G24G25G26G27G28G29G30G31G32R01R02R03
+        R04R05R07R08R09R11R12R13R14R15R16R17R18R19R20R21R22
+        R24R25R26  0  0  0  0  0  0  0  0  0  0  0  0  0  0
+          0  0  0  0  0  0  0  0  0  0  0  0  0  0  0  0  0
++         7  9  8  9  8  8  9  8  9  7  7  7  9  8  8  8  7
++         9  8  8  8  8  8  9  9  8  8  7  8  9  8  8  7  8
++         8  8  8  9  9  7  7  8  9  8  8  6  9  8  8  8  8
++         7  7  8  0  0  0  0  0  0  0  0  0  0  0  0  0  0
++         0  0  0  0  0  0  0  0  0  0  0  0  0  0  0  0  0
%c M  cc GPS ccc cccc cccc cccc cccc ccccc ccccc ccccc ccccc
%c cc cc ccc ccc cccc cccc cccc cccc ccccc ccccc ccccc ccccc
%f  0.0000000  0.000000000  0.00000000000  0.000000000000000
%f  0.0000000  0.000000000  0.00000000000  0.000000000000000
%i    0    0    0    0      0      0      0      0         0
%i    0    0    0    0      0      0      0      0         0
/* IAC                                ULTRA-RAPID PREDICTION
/* S/V CLOCKS ARE ALIGNED TO GNSS TIME                      
/* G:C1WC2W R:C1PC2P E:C1XC5X C:C2IC6I J:C1CC2S             
/* PCV:IGS20_2315 OL/AL:FES2004  NONE     YN ORB:CoN CLK:CoN
*  2024 06 07  6 30  0.00000000
PG02 -12268.420609 -13349.880385 -19034.843279   -422.287468
PG03 -12730.344755 -23115.365180   3401.440829    401.691885
PG04  -5939.797209 -15639.070915  20616.283269    377.887179
PG05   3612.930648  23762.766287  11022.420226   -175.447860
PG06 -22587.079818   5855.361881  12851.248961    232.202358
PG07 -25524.986107  -6546.821788   5453.299325   -100.335910
PG08   2270.462647 -21955.156425 -14566.854780    217.707577
PG09 -15454.904121  -3773.447503  21194.143532    225.297321
PG10  14369.179556  -3459.684086 -21881.776724    -37.679497
PG11 -10829.715210  12781.841722  20620.599219   -680.064658
PG12  10042.335331  24563.579786   1348.448897   -511.992392
PG13 -11864.615123  21711.808906  -9537.268868    656.182550
PG14 -16506.898542   -566.385108 -20803.269696    419.466595
PG15    782.568902  22322.438916 -14725.305741    167.431635
PG16   1746.373005 -22649.684973  13049.470229   -271.074237
PG17 -20227.492325   9388.395121 -14131.984425    697.969017
PG18  25708.933699   5855.915317   4008.448122   -621.635801
PG19 -20243.692167  15458.415680  -6934.657577    492.924912
PG20  -3200.232425  18766.106448  18643.806401    374.103827
PG21  -7097.307305 -14581.248591 -20776.291881    116.995057
PG22 -12783.523553   8498.003907 -21285.498904    -24.045329
PG23  17616.238181   9147.385788 -17723.650842    244.324773
PG24  10004.739298  14929.855711 -20093.858359   -475.952767
PG25  16275.508599  18745.595490   9460.054102    496.980915
PG26  10360.382167 -12903.099347  20560.298792    140.989154
PG27  11747.163694 -23012.815759  -5376.710108    -27.292729
PG28  23814.912835  -5584.080259  10338.020004   -277.832188
PG29  13037.762844   7644.530967  21794.761589   -595.314594
PG30 -26052.672288   1413.318128  -5531.070348   -378.254859
PG31  16109.496733 -10894.070492  18047.638773   -227.527465
PG32  19559.975795 -12102.770270 -12892.494653   -616.913338
PR01   -608.086723  23576.931538  -9693.141212     87.673112
PR02   7262.866972  11581.577962 -21503.034026    -23.192824
PR03  12098.495648  -7211.115788 -21204.745342    101.596535
PR04  10180.818110 -21414.840605  -9360.054430    239.976162
PR05   2918.194192 -24190.915542   7529.102551    132.706013
PR07 -12205.519185   8069.487437  20949.437154     84.035605
PR08 -10026.942364  21602.794088   9237.459380     -4.685784
PR09 -19579.772049 -16224.617476  -2506.308677    190.851516
PR11  -7277.135020   8169.690591 -23028.757178     22.215317
PR12   9392.277412  18743.628956 -14509.202415     41.023488
PR13  18529.385992  17531.220779    -71.330605    -48.125734
PR14  17687.743373   4934.105109  17709.525189     26.556157
PR15   6065.934605  -9476.598353  22915.789384     79.056999
PR16  -9349.246191 -18599.039383  14783.372112     26.256132
PR17  24782.955375  -5384.958752   2938.738465     93.637585
PR18  18829.876210 -11054.652223 -13138.222599    145.814426
PR19   5483.747935 -11408.749470 -22152.830692   -279.411935
PR20 -16420.481328  -4939.088577 -18899.150310   -114.048946
PR21 -24782.452259   5046.169920  -3212.285944   -107.201891
PR22 -18228.732392  11077.670038  14018.086827    105.451507
PR24  17142.663520   4323.318597  18405.460719    -58.864391
PR25 -24959.188771   4496.149607  -2631.256672    -34.537302
PR26 -10251.733786  20917.199457  10385.479919     -6.830472
*  2024 06 07  6 45  0.00000000
PG02  -9939.237165 -13479.091716 -20209.889276   -422.281215
PG03 -12675.812177 -23408.611765    517.024462    401.708493
PG04  -4511.700778 -17436.822322  19493.176857    377.894536
PG05   2755.610045  22607.730327  13410.454413   -175.449020
PG06 -23884.040125   5607.204388  10375.617550    232.183677
PG07 -24803.211405  -6727.350339   8120.112506   -100.324979
PG08   3289.981024 -23133.246607 -12325.087759    217.724453
PG09 -14159.605522  -5873.036072  21610.917933    225.310312
PG10  15450.915288  -1192.477817 -21413.191674    -37.686543
PG11 -13093.451152  12419.389058  19492.249352   -680.072215
PG12   9821.925198  24675.935255  -1508.391479   -511.995288
PG13 -12643.824687  22244.178403  -6856.773463    656.185008
PG14 -17402.214413  -2726.119551 -19903.464903    419.474824
PG15    -84.071911  23572.004503 -12547.592032    167.435406
PG16   2562.937728 -21158.128260  15225.403192   -271.064888
PG17 -19270.770667   7860.789742 -16177.551248    697.964438
PG18  25081.964346   5996.716835   6791.035369   -621.640430
PG19 -19829.628381  14586.451543  -9612.043187    492.929746
PG20  -4588.321260  17064.255093  19935.193508    374.103456
PG21  -4610.246215 -14650.581980 -21316.943029    116.992911
PG22 -13696.968928   6131.821753 -21499.077156    -24.049900
PG23  18397.712733  10899.104787 -15860.109584    244.333091
PG24   7742.830666  15071.201833 -20949.777570   -475.955296
PG25  16492.735968  19723.014304   6849.894414    496.981423
PG26  11664.415039 -10852.605461  21070.020096    140.983635
PG27  12213.611367 -23215.368156  -2541.363556    -27.294073
PG28  24841.500373  -5313.716756   7741.025301   -277.847541
PG29  11486.502034   9613.919827  21876.861392   -595.313127
PG30 -26521.326092   1076.339581  -2796.721643   -378.249400
PG31  18081.720377 -10562.217511  16350.671953   -227.527337
PG32  18833.286008 -10617.436778 -15080.774150   -616.912485
PR01   -664.325860  24596.378225  -6690.973612     87.674075
PR02   6753.624842  14110.489813 -20121.884056    -23.192869
PR03  11467.315331  -4589.921630 -22260.727001    101.597031
PR04   9725.654858 -20147.596852 -12213.791166    239.977716
PR05   2917.492417 -24946.819353   4410.012506    132.706517
PR07 -11570.992786   5499.556581  22108.222072     84.036351
PR08  -9598.402510  20360.075822  12090.811709     -4.686258
PR09 -19730.735960 -16226.253669    670.259587    190.853431
PR11  -9397.341946   6288.737040 -22852.698263     22.214185
PR12   8018.609890  17371.242509 -16847.380057     41.023869
PR13  18461.910728  17298.274249  -3266.676532    -48.126088
PR14  19269.945603   6234.582011  15507.933554     26.556162
PR15   8157.992144  -7578.569868  22971.947257     79.056614
PR16  -7962.251330 -17204.235726  17101.314576     26.256437
PR17  24194.125020  -5400.998939   6105.648213     93.640614
PR18  20174.308214 -11634.406452 -10343.248271    145.816071
PR19   8036.520462 -12166.168744 -20937.624735   -279.413228
PR20 -14029.023963  -5441.482229 -20606.945831   -114.049423
PR21 -24158.955802   5063.418213  -6381.265128   -107.204785
PR22 -19703.590309  11603.634949  11337.719780    105.448061
PR24  14846.286870   4943.882002  20160.408091    -58.865707
PR25 -24419.701245   4500.886538  -5790.316181    -34.565449
PR26  -9808.237395  19529.037175  13155.626696     -6.829791
EOF
